{
    "links": {
        "self": "http://www.neowsapp.com/rest/v1/neo/3713976?api_key=iIulBulltgU6a56xZRHN4H3l9WmuAYTsLGpBGhQ2"
    },
    "id": "3713976",
    "neo_reference_id": "3713976",
    "name": "(2015 FP34)",
    "designation": "2015 FP34",
    "nasa_jpl_url": "http://ssd.jpl.nasa.gov/sbdb.cgi?sstr=3713976",
    "absolute_magnitude_h": 24.7,
    "estimated_diameter": {
        "kilometers": {
            "estimated_diameter_min": 0.0305179233,
            "estimated_diameter_max": 0.0682401509
        },
        "meters": {
            "estimated_diameter_min": 30.5179232594,
            "estimated_diameter_max": 68.2401509401
        },
        "miles": {
            "estimated_diameter_min": 0.0189629525,
            "estimated_diameter_max": 0.0424024508
        },
        "feet": {
            "estimated_diameter_min": 100.1244233463,
            "estimated_diameter_max": 223.8850168104
        }
    },
    "is_potentially_hazardous_asteroid": false,
    "close_approach_data": [
        {
            "close_approach_date": "2015-03-30",
            "close_approach_date_full": "2015-Mar-30 04:09",
            "epoch_date_close_approach": 1427688540000,
            "relative_velocity": {
                "kilometers_per_second": "9.487780904",
                "kilometers_per_hour": "34156.0112544357",
                "miles_per_hour": "21223.2171041798"
            },
            "miss_distance": {
                "astronomical": "0.0848807943",
                "lunar": "33.0186289827",
                "kilometers": "12697986.031188141",
                "miles": "7890162.6480767058"
            },
            "orbiting_body": "Earth"
        }
    ],
    "orbital_data": {
        "orbit_id": "5",
        "orbit_determination_date": "2019-07-17 06:10:36",
        "first_observation_date": "2015-03-20",
        "last_observation_date": "2015-03-22",
        "data_arc_in_days": 2,
        "observations_used": 24,
        "orbit_uncertainty": "8",
        "minimum_orbit_intersection": ".0683087",
        "jupiter_tisserand_invariant": "3.877",
        "epoch_osculation": "2457102.5",
        "eccentricity": ".4200078572153142",
        "semi_major_axis": "1.836162085292329",
        "inclination": "14.56408179747246",
        "ascending_node_longitude": "5.127303212965867",
        "orbital_period": "908.7929515115203",
        "perihelion_distance": "1.064959582348695",
        "perihelion_argument": "175.8126080812446",
        "aphelion_distance": "2.607364588235964",
        "perihelion_time": "2457106.805585279114",
        "mean_anomaly": "358.2944292229566",
        "mean_motion": ".3961298328747397",
        "equinox": "J2000",
        "orbit_class": {
            "orbit_class_type": "AMO",
            "orbit_class_description": "Near-Earth asteroid orbits similar to that of 1221 Amor",
            "orbit_class_range": "1.017 AU < q (perihelion) < 1.3 AU"
        }
    },
    "is_sentry_object": false
}